ORBCOMM FM115           
1 41186U 15081H   24279.83347402  .00005437  00000+0  11228-2 0  9994
2 41186  46.9967 168.3709 0000807 296.1184  63.9620 14.61359742470552
ORBCOMM FM108           
1 41187U 15081J   24279.34356995  .00006626  00000+0  14909-2 0  9998
2 41187  47.0032 229.7182 0002208 223.2235 136.8477 14.57130640469614
ORBCOMM FM117           
1 41188U 15081K   24279.92691501  .00006641  00000+0  14940-2 0  9990
2 41188  46.9992 225.8154 0002986 237.8877 122.1718 14.57140598469743
ORBCOMM FM116           
1 41189U 15081L   24280.46511634  .00004644  00000+0  10555-2 0  9999
2 41189  47.0014 313.1151 0003060 309.1216  50.9397 14.57170778468702
